{
  "type": "FeatureCollection",
  "features": [
    {
      "type": "Feature",
      "geometry": {
        "type": "Polygon",
        "coordinates": [
          [
            [
              103.84970389564387,
              1.3740192256951549
            ],
            [
              103.84970152583546,
              1.3739789191026401
            ],
            [
              103.84971839201292,
              1.373976481724732
            ],
            [
              103.8497161984618,
              1.3739563460705404
            ],
            [
              103.84980548142555,
              1.3739511887680114
            ],
            [
              103.8498070082419,
              1.3739720307351933
            ],
            [
              103.84983063257822,
              1.373969593309588
            ],
            [
              103.8498277534236,
              1.3739505881155463
            ],
            [
              103.84992131898349,
              1.3739458892915688
            ],
            [
              103.84992216108591,
              1.3739662718464265
            ],
            [
              103.84997546434832,
              1.3739632689841919
            ],
            [
              103.84997528808718,
              1.3739428855203273
            ],
            [
              103.85006660631993,
              1.373938435406542
            ],
            [
              103.85006722109102,
              1.3739597006224125
            ],
            [
              103.85008972132486,
              1.3739588883446543
            ],
            [
              103.85009021268884,
              1.3739366681123721
            ],
            [
              103.85018132064413,
              1.3739306281233712
            ],
            [
              103.85018125071267,
              1.373953059069535
            ],
            [
              103.85020622561156,
              1.373951999881681
            ],
            [
              103.85020446964651,
              1.373929814935561
            ],
            [
              103.85029533230677,
              1.3739259996799067
            ],
            [
              103.85029619239351,
              1.373947760485533
            ],
            [
              103.85034993326744,
              1.3739458880670454
            ],
            [
              103.85034819617107,
              1.373923703120912
            ],
            [
              103.85043928616622,
              1.3739194284411036
            ],
            [
              103.85043900596656,
              1.373941188350514
            ],
            [
              103.85046350731933,
              1.3739403416889584
            ],
            [
              103.85046334901443,
              1.3739184036229612
            ],
            [
              103.85055263197633,
              1.3739134579135983
            ],
            [
              103.85055324587921,
              1.373938362290901
            ],
            [
              103.85056786654211,
              1.3739383974550203
            ],
            [
              103.850569113139,
              1.3739771503569387
            ],
            [
              103.8505841884762,
              1.3739767261006328
            ],
            [
              103.85058673366866,
              1.3740376277770587
            ],
            [
              103.85037171537809,
              1.374048755722876
            ],
            [
              103.85037189073903,
              1.3740684328782062
            ],
            [
              103.8503129722973,
              1.3740711870893696
            ],
            [
              103.8503132354367,
              1.3740510523226006
            ],
            [
              103.8501427620189,
              1.3740579764438194
            ],
            [
              103.85014320056001,
              1.3740634170958377
            ],
            [
              103.85002781857298,
              1.3740687156755966
            ],
            [
              103.85002648506554,
              1.374064865806504
            ],
            [
              103.84969340074622,
              1.3740812579179493
            ],
            [
              103.8496890476588,
              1.3740216992336287
            ],
            [
              103.84970389564387,
              1.3740192256951549
            ]
          ]
        ]
      },
      "properties": {
        "OBJECTID": 937499,
        "BLK_NO": "509",
        "ST_COD": "ANA09H",
        "ENTITYID": 7861,
        "POSTAL_COD": "560509",
        "INC_CRC": "16EB5D941365D34A",
        "FMEL_UPD_D": "20260121121018",
        "SHAPE.AREA": 1312.79762726,
        "SHAPE.LEN": 260.818141710216
      }
    },
    {
      "type": "Feature",
      "geometry": {
        "type": "Polygon",
        "coordinates": [
          [
            [
              103.76518161240229,
              1.3130090348071781
            ],
            [
              103.76518420917385,
              1.313010328119026
            ],
            [
              103.76514786077854,
              1.3130874060708888
            ],
            [
              103.7651453718274,
              1.3130863117220544
            ],
            [
              103.76512394170115,
              1.313076426434519
            ],
            [
              103.76511418289762,
              1.3130971270599672
            ],
            [
              103.76513561302401,
              1.3131070123475923
            ],
            [
              103.76513805704771,
              1.3131081066952042
            ],
            [
              103.7651013941482,
              1.313185519252247
            ],
            [
              103.76509916578111,
              1.3131842440377084
            ],
            [
              103.76507743914729,
              1.3131738342104444
            ],
            [
              103.76506776838458,
              1.313195132622718
            ],
            [
              103.76508943392923,
              1.3132050984056398
            ],
            [
              103.76509181504943,
              1.3132063826680247
            ],
            [
              103.76505567330983,
              1.313283632452969
            ],
            [
              103.76505311247708,
              1.3132824476656537
            ],
            [
              103.76503206873822,
              1.3132721011622233
            ],
            [
              103.76502179775277,
              1.3132930730823302
            ],
            [
              103.76504332670973,
              1.3133033653373496
            ],
            [
              103.7650457347926,
              1.3133044235095084
            ],
            [
              103.7650096110203,
              1.3133817004249886
            ],
            [
              103.76500692439723,
              1.3133802714558658
            ],
            [
              103.7649854969745,
              1.3133700280389633
            ],
            [
              103.7649642630199,
              1.313415616446727
            ],
            [
              103.7649856904429,
              1.3134258598638247
            ],
            [
              103.76498832316315,
              1.3134269180422247
            ],
            [
              103.7649005388209,
              1.313613540191614
            ],
            [
              103.76489553359573,
              1.313624790342525
            ],
            [
              103.76485882754722,
              1.3137023132261019
            ],
            [
              103.76485652549391,
              1.3137012170733837
            ],
            [
              103.76483548175254,
              1.31369087056818
            ],
            [
              103.76482506699573,
              1.31371184248326
            ],
            [
              103.76484659595529,
              1.3137221347400976
            ],
            [
              103.76484902200993,
              1.313723174825674
            ],
            [
              103.76481265562316,
              1.3138002165960485
            ],
            [
              103.76481015768329,
              1.3137992217266525
            ],
            [
              103.76478894502597,
              1.3137884384085305
            ],
            [
              103.76477098554632,
              1.313827836532579
            ],
            [
              103.7647927238479,
              1.3138388875571352
            ],
            [
              103.7647963135763,
              1.3138380068056452
            ],
            [
              103.76481925804333,
              1.3139035684065228
            ],
            [
              103.76481668726791,
              1.3139045170134658
            ],
            [
              103.76479384592612,
              1.313912529048481
            ],
            [
              103.76480204907509,
              1.3139347766306035
            ],
            [
              103.7648243692651,
              1.3139265204028483
            ],
            [
              103.76482693914153,
              1.3139255889787904
            ],
            [
              103.76485601401112,
              1.314005879221483
            ],
            [
              103.76485323746212,
              1.3140070367308787
            ],
            [
              103.76483075013877,
              1.3140153851993768
            ],
            [
              103.76484780871894,
              1.3140623022683127
            ],
            [
              103.76486987731444,
              1.314054109338751
            ],
            [
              103.7648725720912,
              1.3140531091864291
            ],
            [
              103.76489587060536,
              1.3141181209431148
            ],
            [
              103.76489292332694,
              1.3141194593206518
            ],
            [
              103.76488722618214,
              1.314132011736602
            ],
            [
              103.76487589627277,
              1.3141356876640298
            ],
            [
              103.76487444053541,
              1.3141388963075358
            ],
            [
              103.76489702887648,
              1.3141496299229787
            ],
            [
              103.76490695844268,
              1.3141277527259434
            ],
            [
              103.76490819851368,
              1.3141250758425331
            ],
            [
              103.76498491566988,
              1.3141615238274704
            ],
            [
              103.7649835498035,
              1.3141641464456146
            ],
            [
              103.7649734405272,
              1.3141860498645852
            ],
            [
              103.7649856858028,
              1.3141917811568042
            ],
            [
              103.76498418064563,
              1.3141949780422855
            ],
            [
              103.76500450287041,
              1.314204816273981
            ],
            [
              103.76496009399351,
              1.3142991221344265
            ],
            [
              103.7649397331269,
              1.3142894177471585
            ],
            [
              103.76493820550452,
              1.314292664372007
            ],
            [
              103.76492885106354,
              1.3143125556015127
            ],
            [
              103.76483548400225,
              1.314268044749732
            ],
            [
              103.76476830932228,
              1.3142359198839262
            ],
            [
              103.76474499377522,
              1.3141695479622213
            ],
            [
              103.76472414006116,
              1.3141102663225146
            ],
            [
              103.76470492153753,
              1.3140572248397995
            ],
            [
              103.76465886542852,
              1.3139279175944623
            ],
            [
              103.76462409427086,
              1.313829060598234
            ],
            [
              103.76466381247614,
              1.3137438253853735
            ],
            [
              103.76471528437638,
              1.3136338832706038
            ],
            [
              103.7647776329431,
              1.3135007499429123
            ],
            [
              103.76479844094233,
              1.3134568924780383
            ],
            [
              103.76482891251821,
              1.3133917338885317
            ],
            [
              103.76495637908695,
              1.3131203467905233
            ],
            [
              103.76505969123525,
              1.3129004354228602
            ],
            [
              103.76508304516193,
              1.3128768592933378
            ],
            [
              103.76507340399613,
              1.3128671099838696
            ],
            [
              103.76515626143686,
              1.3127843177285614
            ],
            [
              103.76523687243682,
              1.3127038586678859
            ],
            [
              103.76526415701086,
              1.3127320185994538
            ],
            [
              103.76527305199025,
              1.3127230005246033
            ],
            [
              103.7653675902379,
              1.3128183456943132
            ],
            [
              103.76523769249245,
              1.312948154555986
            ],
            [
              103.7651959268108,
              1.312989717983371
            ],
            [
              103.7651940219435,
              1.312987628850135
            ],
            [
              103.76517730939571,
              1.3129705178235855
            ],
            [
              103.76516552895853,
              1.3129875014575279
            ],
            [
              103.7651600744592,
              1.312998832989595
            ],
            [
              103.76518161240229,
              1.3130090348071781
            ]
          ]
        ]
      },
      "properties": {
        "OBJECTID": 942992,
        "BLK_NO": "449",
        "ST_COD": "CLA06H",
        "ENTITYID": 2806,
        "POSTAL_COD": "120449",
        "INC_CRC": "6836B98D24E97C5B",
        "FMEL_UPD_D": "20130426120223",
        "SHAPE.AREA": 3394.439915425,
        "SHAPE.LEN": 494.046473355587
      }
    },
    {
      "type": "Feature",
      "geometry": {
        "type": "Polygon",
        "coordinates": [
          [
            [
              103.76630696932425,
              1.3110256855380404
            ],
            [
              103.76630696785183,
              1.3110134766226385
            ],
            [
              103.76630009395727,
              1.3110134773418216
            ],
            [
              103.76630009244882,
              1.3110026249725708
            ],
            [
              103.76631685037468,
              1.3110026227108962
            ],
            [
              103.76631684962041,
              1.3109971965262688
            ],
            [
              103.76637705235669,
              1.3109971900077693
            ],
            [
              103.76637705385347,
              1.3110084945590885
            ],
            [
              103.76637166256363,
              1.3110084953183665
            ],
            [
              103.76637166613133,
              1.3110433133363915
            ],
            [
              103.76637009367171,
              1.3110433160071637
            ],
            [
              103.76637009530069,
              1.3110496438428285
            ],
            [
              103.76635459534212,
              1.3110496461387098
            ],
            [
              103.76635459665856,
              1.3110677334207752
            ],
            [
              103.7663771502216,
              1.3110677304103668
            ],
            [
              103.76637714801848,
              1.3110491909462183
            ],
            [
              103.76641650443499,
              1.31104918657884
            ],
            [
              103.76641650663841,
              1.3110677260430035
            ],
            [
              103.76643906020148,
              1.3110677230320336
            ],
            [
              103.76643905888444,
              1.311049635749937
            ],
            [
              103.76642355892585,
              1.3110496380462486
            ],
            [
              103.76642355729678,
              1.3110433093062128
            ],
            [
              103.76642198483728,
              1.3110433074551975
            ],
            [
              103.76642198126886,
              1.3110084894371365
            ],
            [
              103.76641658997903,
              1.3110084892921479
            ],
            [
              103.76641658848206,
              1.3109971847408193
            ],
            [
              103.76647679121847,
              1.310997178219907
            ],
            [
              103.76647679197308,
              1.3110026044045524
            ],
            [
              103.76648937164939,
              1.3110026029338073
            ],
            [
              103.76648937157742,
              1.3110053160261188
            ],
            [
              103.76648667593251,
              1.311005315953699
            ],
            [
              103.76648667885512,
              1.311030638148696
            ],
            [
              103.76650105562818,
              1.31103063672618
            ],
            [
              103.76650105714951,
              1.3110410369134213
            ],
            [
              103.76649836150453,
              1.3110410377453763
            ],
            [
              103.76649836439125,
              1.3110677164865274
            ],
            [
              103.76651992955121,
              1.3110677134482736
            ],
            [
              103.76651992967108,
              1.3110631916277542
            ],
            [
              103.76652262531607,
              1.3110631917001412
            ],
            [
              103.7665226251962,
              1.3110677135206605
            ],
            [
              103.76654958164615,
              1.3110677097225512
            ],
            [
              103.7665495816821,
              1.3110663531763944
            ],
            [
              103.76661427716199,
              1.3110663458684664
            ],
            [
              103.7666142772338,
              1.3110636327761496
            ],
            [
              103.7666169728788,
              1.3110636328484342
            ],
            [
              103.7666169750717,
              1.3110826244947245
            ],
            [
              103.76662236636173,
              1.311082623734923
            ],
            [
              103.76662237291661,
              1.311140503037887
            ],
            [
              103.76661114106211,
              1.3111405045454165
            ],
            [
              103.76661114030723,
              1.3111350783607623
            ],
            [
              103.76659384325136,
              1.3111350806099111
            ],
            [
              103.76659384398226,
              1.311141411158668
            ],
            [
              103.7665738512813,
              1.3111414133353618
            ],
            [
              103.76657384986748,
              1.3111269435096435
            ],
            [
              103.76655587890042,
              1.3111269457404477
            ],
            [
              103.76655588033809,
              1.3111405112020569
            ],
            [
              103.76656082235407,
              1.311140510430336
            ],
            [
              103.76656082310885,
              1.3111459366149847
            ],
            [
              103.76655588109286,
              1.3111459373867047
            ],
            [
              103.76655588182366,
              1.3111522679354561
            ],
            [
              103.76656082383965,
              1.3111522671637366
            ],
            [
              103.76656082459444,
              1.3111576933483848
            ],
            [
              103.76655588257843,
              1.3111576941201035
            ],
            [
              103.76655588401607,
              1.3111712595817089
            ],
            [
              103.76657385498346,
              1.3111712573509209
            ],
            [
              103.76657385356968,
              1.3111567875252064
            ],
            [
              103.76659384627077,
              1.311156785348519
            ],
            [
              103.76659384700167,
              1.3111631158972752
            ],
            [
              103.76661114405773,
              1.311163113648136
            ],
            [
              103.76661114330285,
              1.3111576874634827
            ],
            [
              103.76662237515741,
              1.3111576859559577
            ],
            [
              103.76662238171221,
              1.3112155652588868
            ],
            [
              103.7666169904219,
              1.3112155660186737
            ],
            [
              103.76661699261474,
              1.3112345576649407
            ],
            [
              103.76661429696955,
              1.3112345584970102
            ],
            [
              103.76661429704139,
              1.3112318454046972
            ],
            [
              103.76654960155724,
              1.3112318527124067
            ],
            [
              103.7665496015932,
              1.3112304961662518
            ],
            [
              103.76652264514152,
              1.311230499059908
            ],
            [
              103.76652264502164,
              1.3112350208804213
            ],
            [
              103.76651994937646,
              1.3112350217123887
            ],
            [
              103.76651994949634,
              1.3112304998918756
            ],
            [
              103.76650107998017,
              1.3112305020981134
            ],
            [
              103.76650108134555,
              1.3112467806520023
            ],
            [
              103.76649838570039,
              1.3112467805795818
            ],
            [
              103.76649838943757,
              1.3112752680489168
            ],
            [
              103.76650108508278,
              1.3112752681213389
            ],
            [
              103.7665010857055,
              1.3112856683085357
            ],
            [
              103.76648401328573,
              1.3112856705629028
            ],
            [
              103.76648401335771,
              1.3112829574705978
            ],
            [
              103.76647772351886,
              1.3112829582059287
            ],
            [
              103.76647772578261,
              1.3112992367598268
            ],
            [
              103.7664606533628,
              1.3112992381096649
            ],
            [
              103.76646065321879,
              1.311304664294271
            ],
            [
              103.76640314612028,
              1.3113046717913073
            ],
            [
              103.76640314552199,
              1.311293367240033
            ],
            [
              103.76640853681245,
              1.3112933664807185
            ],
            [
              103.76640853241791,
              1.3112558353704116
            ],
            [
              103.76641010487769,
              1.311255831795258
            ],
            [
              103.76641010414718,
              1.3112495039596228
            ],
            [
              103.76643458959094,
              1.311249501000748
            ],
            [
              103.76643458737546,
              1.3112314137186551
            ],
            [
              103.7664085294722,
              1.3112314166352372
            ],
            [
              103.76640852428716,
              1.3111898158864337
            ],
            [
              103.76642469815785,
              1.3111898145127496
            ],
            [
              103.76642469516392,
              1.3111672054101207
            ],
            [
              103.7664772602433,
              1.311167198683986
            ],
            [
              103.76647726038726,
              1.3111617724993716
            ],
            [
              103.7664808545807,
              1.311161772595956
            ],
            [
              103.76648084943038,
              1.3111188153009137
            ],
            [
              103.76643659592422,
              1.3111188204419473
            ],
            [
              103.76643659582821,
              1.311122437898355
            ],
            [
              103.76643120453811,
              1.3111224386577494
            ],
            [
              103.76643120742408,
              1.3111491173988463
            ],
            [
              103.7663624684747,
              1.311149125497426
            ],
            [
              103.76636246558948,
              1.3111224458520023
            ],
            [
              103.76635707429939,
              1.3111224466112363
            ],
            [
              103.76635707439551,
              1.3111188291548344
            ],
            [
              103.7663128208895,
              1.3111188342936664
            ],
            [
              103.76631282603692,
              1.3111617924929253
            ],
            [
              103.76631642023038,
              1.3111617916853826
            ],
            [
              103.76631642008608,
              1.3111672178699791
            ],
            [
              103.76636898516533,
              1.3111672120504962
            ],
            [
              103.76636898815876,
              1.311189821153099
            ],
            [
              103.76638516202947,
              1.3111898188753077
            ],
            [
              103.76638516721414,
              1.3112314196240913
            ],
            [
              103.76635910931093,
              1.3112314225401553
            ],
            [
              103.76635911152587,
              1.3112495098222205
            ],
            [
              103.76638359696956,
              1.3112495077682116
            ],
            [
              103.7663835977,
              1.3112558356038433
            ],
            [
              103.76638517015962,
              1.31125583745489
            ],
            [
              103.76638517455382,
              1.311293368565179
            ],
            [
              103.76639056584426,
              1.3112933687102672
            ],
            [
              103.76639056644248,
              1.3113046732615383
            ],
            [
              103.76633305934409,
              1.3113046798525902
            ],
            [
              103.76633305948836,
              1.3112992536679982
            ],
            [
              103.76631091027006,
              1.3112992557844299
            ],
            [
              103.76631104348373,
              1.3112906643290787
            ],
            [
              103.76628768122515,
              1.3112906673169888
            ],
            [
              103.76628767901074,
              1.3112725800349565
            ],
            [
              103.76629531667213,
              1.3112725793364268
            ],
            [
              103.76629531458998,
              1.3112495180518482
            ],
            [
              103.76628767692866,
              1.3112495187503816
            ],
            [
              103.76628767459387,
              1.311235955097563
            ],
            [
              103.76629261660999,
              1.311235955230749
            ],
            [
              103.76629261675441,
              1.3112305263330664
            ],
            [
              103.76627374723834,
              1.3112305285375794
            ],
            [
              103.766273747118,
              1.3112350503580696
            ],
            [
              103.76627105147286,
              1.3112350502854038
            ],
            [
              103.76627105159318,
              1.3112305284649135
            ],
            [
              103.76624409514164,
              1.3112305322599151
            ],
            [
              103.76624409573924,
              1.311241836811158
            ],
            [
              103.76619287848114,
              1.3112418426642982
            ],
            [
              103.76619287930741,
              1.3112445557566121
            ],
            [
              103.76619018366226,
              1.311244555683858
            ],
            [
              103.76619017850491,
              1.311202050571148
            ],
            [
              103.76617670027932,
              1.311202052016073
            ],
            [
              103.76617669586406,
              1.311165425270014
            ],
            [
              103.76619983348431,
              1.3111654231813883
            ],
            [
              103.7661998327544,
              1.3111590926326835
            ],
            [
              103.76621982545538,
              1.3111590895546386
            ],
            [
              103.76621982692735,
              1.3111712984700044
            ],
            [
              103.76623779789459,
              1.3111712971460083
            ],
            [
              103.76623779645865,
              1.3111577316844911
            ],
            [
              103.7662328544427,
              1.311157731551204
            ],
            [
              103.76623285368862,
              1.3111523053665926
            ],
            [
              103.76623779570458,
              1.3111523045955147
            ],
            [
              103.76623779497459,
              1.3111459740468043
            ],
            [
              103.76623285295862,
              1.3111459748178826
            ],
            [
              103.76623285220455,
              1.3111405486332708
            ],
            [
              103.7662377942205,
              1.3111405478621918
            ],
            [
              103.76623779278455,
              1.3111269824006715
            ],
            [
              103.7662198218176,
              1.311126984629048
            ],
            [
              103.76621982328957,
              1.311139193544417
            ],
            [
              103.76619983058876,
              1.3111391966224697
            ],
            [
              103.76619982985886,
              1.3111328651693996
            ],
            [
              103.76617669223889,
              1.3111328681624048
            ],
            [
              103.76617668782357,
              1.3110962414163254
            ],
            [
              103.7661901660486,
              1.3110962399713715
            ],
            [
              103.76619016089113,
              1.3110537348586109
            ],
            [
              103.7661928565361,
              1.3110537340269905
            ],
            [
              103.76619285736238,
              1.3110564471193085
            ],
            [
              103.76624407461671,
              1.3110564412659733
            ],
            [
              103.76624407521433,
              1.3110677458172324
            ],
            [
              103.76627103166412,
              1.3110677429265047
            ],
            [
              103.76627103178444,
              1.3110632211060087
            ],
            [
              103.76627372742942,
              1.311063220274301
            ],
            [
              103.76627372730911,
              1.3110677420947974
            ],
            [
              103.76629529246894,
              1.311067739962855
            ],
            [
              103.76629529041075,
              1.3110437743141383
            ],
            [
              103.76628765275004,
              1.3110437750127037
            ],
            [
              103.76628765053555,
              1.3110256877306352
            ],
            [
              103.76630696932425,
              1.3110256855380404
            ]
          ]
        ]
      },
      "properties": {
        "OBJECTID": 945486,
        "BLK_NO": "461",
        "ST_COD": "CLA06H",
        "ENTITYID": 2850,
        "POSTAL_COD": "120461",
        "INC_CRC": "62B30C2287F09467",
        "FMEL_UPD_D": "20130426120223",
        "SHAPE.AREA": 1029.7577196,
        "SHAPE.LEN": 358.344419917203
      }
    },
    {
      "type": "Feature",
      "geometry": {
        "type": "Polygon",
        "coordinates": [
          [
            [
              103.94521481963241,
              1.3559934347407439
            ],
            [
              103.9452289838849,
              1.355978131361432
            ],
            [
              103.94522292728784,
              1.3559720543260763
            ],
            [
              103.94520202142449,
              1.3559941353126217
            ],
            [
              103.94504255529306,
              1.3561539535533234
            ],
            [
              103.94495805168168,
              1.3561540216860657
            ],
            [
              103.94495811433768,
              1.3561290938306734
            ],
            [
              103.94496122606431,
              1.3561291153909736
            ],
            [
              103.9449611358676,
              1.3560432298816056
            ],
            [
              103.94499782873348,
              1.356043749995891
            ],
            [
              103.94516707526203,
              1.3558738458513682
            ],
            [
              103.94515229499413,
              1.3558586776634591
            ],
            [
              103.94511656077604,
              1.355894669340495
            ],
            [
              103.94484777458354,
              1.3556241715652104
            ],
            [
              103.94469509897232,
              1.3554710410948945
            ],
            [
              103.9446872584499,
              1.3554785114934114
            ],
            [
              103.94464151226606,
              1.3554320501683075
            ],
            [
              103.94475632182565,
              1.3553168037284644
            ],
            [
              103.94480240676373,
              1.355363181834373
            ],
            [
              103.94477241858249,
              1.3553931230538303
            ],
            [
              103.9452276805341,
              1.3558512665240465
            ],
            [
              103.94524941039165,
              1.3558294658514685
            ],
            [
              103.94528134411942,
              1.3558616515371293
            ],
            [
              103.94525986945989,
              1.3558835815219779
            ],
            [
              103.945536272305,
              1.3561617867719873
            ],
            [
              103.9455643267914,
              1.3562297166632664
            ],
            [
              103.9455643966959,
              1.35649879981675
            ],
            [
              103.94540219697745,
              1.3564990859248913
            ],
            [
              103.9454021966458,
              1.3564332826898902
            ],
            [
              103.94545531343495,
              1.3564331762123227
            ],
            [
              103.94545499404114,
              1.3562486880558253
            ],
            [
              103.94545412784652,
              1.3562491375644403
            ],
            [
              103.94544469457854,
              1.3562264086577123
            ],
            [
              103.94544538014893,
              1.3562256779007367
            ],
            [
              103.94521481963241,
              1.3559934347407439
            ]
          ]
        ]
      },
      "properties": {
        "OBJECTID": 936585,
        "BLK_NO": "503",
        "ST_COD": "TAC10N",
        "ENTITYID": 9869,
        "POSTAL_COD": "520503",
        "INC_CRC": "6D2093F01157626F",
        "FMEL_UPD_D": "20130426120342",
        "SHAPE.AREA": 2404.479485865,
        "SHAPE.LEN": 452.84242240729
      }
    },
    {
      "type": "Feature",
      "geometry": {
        "type": "Polygon",
        "coordinates": [
          [
            [
              103.9454923114095,
              1.3557025308597397
            ],
            [
              103.9454810356885,
              1.3556906317815378
            ],
            [
              103.94546850119104,
              1.3557006707911499
            ],
            [
              103.94546881657156,
              1.3557198703955522
            ],
            [
              103.94547766783926,
              1.3557289588276809
            ],
            [
              103.94549239550821,
              1.355714098558491
            ],
            [
              103.94557815387981,
              1.3558003807040937
            ],
            [
              103.94557874420478,
              1.3557997033089304
            ],
            [
              103.94560137767051,
              1.3558094738913233
            ],
            [
              103.94560110723931,
              1.3558102643168957
            ],
            [
              103.9458814015241,
              1.3558103380403104
            ],
            [
              103.94588150007486,
              1.3559207733748657
            ],
            [
              103.9457854112856,
              1.355920632265814
            ],
            [
              103.94558196932462,
              1.3559205712262774
            ],
            [
              103.945514828264,
              1.3558924088876516
            ],
            [
              103.9453830505405,
              1.3557600208580018
            ],
            [
              103.94536162980008,
              1.3557820268075773
            ],
            [
              103.9453294246987,
              1.3557496756372278
            ],
            [
              103.94535104581705,
              1.3557276307910096
            ],
            [
              103.94489483589759,
              1.3552697641225875
            ],
            [
              103.94486518468817,
              1.355299887104312
            ],
            [
              103.9448198220897,
              1.3552512028413013
            ],
            [
              103.94493356511887,
              1.3551377271857497
            ],
            [
              103.94497971384135,
              1.3551838213154976
            ],
            [
              103.94497251041382,
              1.3551915485242607
            ],
            [
              103.94539413218102,
              1.3556157708810814
            ],
            [
              103.94535862260203,
              1.3556515690171191
            ],
            [
              103.94537355741586,
              1.355666589785476
            ],
            [
              103.94554485247922,
              1.355493705647917
            ],
            [
              103.94568252495516,
              1.3554936232581705
            ],
            [
              103.94568217507708,
              1.3556032880977436
            ],
            [
              103.94556118082673,
              1.3556033118309945
            ],
            [
              103.94555190896398,
              1.3556122726885371
            ],
            [
              103.94556667753179,
              1.3556270185371282
            ],
            [
              103.9454923114095,
              1.3557025308597397
            ]
          ]
        ]
      },
      "properties": {
        "OBJECTID": 937147,
        "BLK_NO": "505",
        "ST_COD": "TAC10N",
        "ENTITYID": 9870,
        "POSTAL_COD": "520505",
        "INC_CRC": "62D6A36E56CDA282",
        "FMEL_UPD_D": "20130426120343",
        "SHAPE.AREA": 2140.10685348,
        "SHAPE.LEN": 411.034379129721
      }
    }
  ]
}
